OBJECT_NAME,OBJECT_ID,EPOCH,MEAN_MOTION,ECCENTRICITY,INCLINATION,RA_OF_ASC_NODE,ARG_OF_PERICENTER,MEAN_ANOMALY,EPHEMERIS_TYPE,CLASSIFICATION_TYPE,NORAD_CAT_ID,ELEMENT_SET_NO,REV_AT_EPOCH,BSTAR,MEAN_MOTION_DOT,MEAN_MOTION_DDOT
KUZGTU 1 (RS47S),2023-091AV,2026-06-17T03:57:29.512224,15.29861977,.0012298,97.5062,232.6447,98.0689,262.1947,0,U,57217,999,16437,.3243E-3,.9323E-4,0
SONATE-2,2024-043Q,2026-06-17T03:19:10.507584,15.58714005,.0007046,97.5535,318.5306,195.8556,164.2480,0,U,59112,999,12788,.42907E-3,.33018E-3,0
MESAT1,2024-125G,2026-06-16T20:24:17.756064,15.63168952,.0009546,97.2286,25.3248,204.9748,155.1050,0,U,60209,999,10951,.52812E-3,.4838E-3,0
OOV-CUBE (TUBSAT-30),2024-128F,2026-06-16T15:44:59.016768,15.02772513,.004465,61.9941,227.4248,133.6062,226.8748,0,U,60240,999,10603,.12883E-3,.1551E-4,0
COLIBRI-S (RS67S),2024-199M,2026-06-17T04:35:13.328736,15.47725105,.0006254,97.2989,42.0452,278.9723,81.0819,0,U,61746,999,13741,.34101E-3,.17588E-3,0
HORS 3 (RS81S),2024-199U,2026-06-17T03:41:31.966080,15.54972377,.0003733,97.2973,43.9937,277.8701,82.2130,0,U,61753,999,13755,.43074E-3,.28816E-3,0
HORS 4 (RS82S),2024-199V,2026-06-17T04:17:18.968064,15.59679999,.0003083,97.2917,45.2208,258.3439,101.7472,0,U,61754,999,13764,.46954E-3,.37477E-3,0
SIT-2086,2024-199AF,2026-06-17T03:10:08.740704,15.53082685,.0004579,97.2928,44.4481,250.1631,109.9129,0,U,61764,999,13442,.46922E-3,.29322E-3,0
HYPERVIEW 1G (RS66S),2024-199AP,2026-06-16T23:58:43.140288,15.75792351,.0003694,97.2863,47.7091,219.4050,140.6947,0,U,61772,999,13464,.8482E-3,.131788E-2,0
ALTAIR (RS65S),2024-199AW,2026-06-17T04:15:01.813248,15.37022326,.0011117,97.3024,37.5281,311.2575,48.7711,0,U,61779,999,13711,.18224E-3,.6531E-4,0
ASRTU-1 (AO-123),2024-199AY,2026-06-17T03:57:35.739072,15.35674881,.0012312,97.2995,36.8360,314.2353,45.7879,0,U,61781,999,13392,.17206E-3,.5901E-4,0
SAMSAT-IONOSPHERE (RS75S),2024-199BB,2026-06-17T04:30:35.250336,15.57623528,.0005861,97.2940,44.0751,276.3982,83.6606,0,U,61784,999,13756,.50997E-3,.37703E-3,0
RTU MIREA 1 (RS51S),2024-199BC,2026-06-17T03:33:26.125056,15.61084061,.0005524,97.2930,44.8662,268.1439,91.9186,0,U,61785,999,13446,.56049E-3,.47297E-3,0
TEVEL2-4,2025-052D,2026-06-16T23:40:40.632960,15.34605865,.000486,97.3904,64.3780,103.4475,256.7310,0,U,63213,999,7008,.48034E-3,.16047E-3,0
TEVEL2-5,2025-052E,2026-06-16T22:36:15.547104,15.34430962,.0004796,97.3902,64.2812,104.9018,255.2757,0,U,63214,999,7007,.46132E-3,.15322E-3,0
TEVEL2-6,2025-052F,2026-06-17T03:35:44.034144,15.34400540,.0004692,97.3903,64.4736,104.9299,255.2464,0,U,63215,999,7010,.4315E-3,.14311E-3,0
TEVEL2-1,2025-052H,2026-06-16T23:35:41.335584,15.33862790,.0004776,97.3878,63.9315,114.0246,246.1497,0,U,63217,999,7006,.46759E-3,.15254E-3,0
TEVEL2-3,2025-052J,2026-06-16T23:27:59.118048,15.33918227,.0004723,97.3882,63.9480,114.1810,245.9927,0,U,63218,999,7006,.46354E-3,.15147E-3,0
TEVEL2-2,2025-052K,2026-06-16T15:46:26.181408,15.33861744,.0004715,97.3883,63.6082,115.1533,245.0199,0,U,63219,999,7001,.44263E-3,.14434E-3,0
TEVEL2-9,2025-052AD,2026-06-16T23:03:14.925888,15.31891765,.0007801,97.3943,63.2870,131.5476,228.6436,0,U,63237,999,6999,.42947E-3,.13167E-3,0
TEVEL2-7,2025-052AE,2026-06-16T16:11:41.423136,15.31589641,.0007828,97.3945,62.9183,132.5601,227.6303,0,U,63238,999,6994,.41668E-3,.12652E-3,0
TEVEL2-8,2025-052AF,2026-06-16T16:23:33.918144,15.31573973,.0007849,97.3946,62.9032,133.0156,227.1744,0,U,63239,999,6994,.40821E-3,.12386E-3,0
INNOSAT 16 (RS92S7),2025-155C,2026-06-17T03:11:51.498816,15.25455745,.0010557,97.4566,135.2612,175.4505,184.6830,0,U,64878,999,8066,.17611E-3,.4387E-4,0
GEOSCAN 6 (RS92S6),2025-155D,2026-06-17T04:21:27.688608,15.30151120,.0008364,97.4559,136.7334,162.4477,197.7054,0,U,64879,999,8076,.27941E-3,.8083E-4,0
GEOSCAN 1 (RS92S1),2025-155E,2026-06-17T04:24:59.472288,15.30746148,.0008305,97.4555,136.8838,162.1541,197.9993,0,U,64880,999,8077,.29334E-3,.8649E-4,0
239ALFEROV (RS61S),2025-155F,2026-06-17T03:41:17.100096,15.32938934,.0008041,97.4555,137.4147,159.1366,201.0206,0,U,64881,999,8080,.37609E-3,.11903E-3,0
GEOSCAN 2 (RS92S2),2025-155Q,2026-06-17T04:15:53.877024,15.31017290,.0008116,97.4554,137.0299,149.5431,210.6282,0,U,64890,999,8078,.28537E-3,.8482E-4,0
GEOSCAN 5 (RS92S5),2025-155R,2026-06-17T03:25:29.438112,15.33255028,.0006755,97.4548,137.5410,162.6848,197.4625,0,U,64891,999,8081,.3407E-3,.10879E-3,0
GEOSCAN 4 (RS92S4),2025-155S,2026-06-17T04:36:42.223104,15.33411240,.0006821,97.4551,137.6394,162.1868,197.9615,0,U,64892,999,8082,.36357E-3,.11673E-3,0
GEOSCAN 3 (RS92S3),2025-155T,2026-06-17T03:03:56.074176,15.35393394,.000678,97.4540,138.0039,160.6173,199.5329,0,U,64893,999,8084,.42577E-3,.14578E-3,0
