KUZGTU 1 (RS47S)        
1 57217U 23091AV  26168.16492491  .00009323  00000+0  32430-3 0  9997
2 57217  97.5062 232.6447 0012298  98.0689 262.1947 15.29861977164370
SONATE-2                
1 59112U 24043Q   26168.13831606  .00033018  00000+0  42907-3 0  9991
2 59112  97.5535 318.5306 0007046 195.8556 164.2480 15.58714005127883
MESAT1                  
1 60209U 24125G   26167.85020551  .00048380  00000+0  52812-3 0  9992
2 60209  97.2286  25.3248 0009546 204.9748 155.1050 15.63168952109514
OOV-CUBE (TUBSAT-30)    
1 60240U 24128F   26167.65623862  .00001551  00000+0  12883-3 0  9995
2 60240  61.9941 227.4248 0044650 133.6062 226.8748 15.02772513106033
COLIBRI-S (RS67S)       
1 61746U 24199M   26168.19112649  .00017588  00000+0  34101-3 0  9995
2 61746  97.2989  42.0452 0006254 278.9723  81.0819 15.47725105137412
HORS 3 (RS81S)          
1 61753U 24199U   26168.15384220  .00028816  00000+0  43074-3 0  9990
2 61753  97.2973  43.9937 0003733 277.8701  82.2130 15.54972377137551
HORS 4 (RS82S)          
1 61754U 24199V   26168.17869176  .00037477  00000+0  46954-3 0  9994
2 61754  97.2917  45.2208 0003083 258.3439 101.7472 15.59679999137641
SIT-2086                
1 61764U 24199AF  26168.13204561  .00029322  00000+0  46922-3 0  9997
2 61764  97.2928  44.4481 0004579 250.1631 109.9129 15.53082685134429
HYPERVIEW 1G (RS66S)    
1 61772U 24199AP  26167.99911042  .00131788  00000+0  84820-3 0  9997
2 61772  97.2863  47.7091 0003694 219.4050 140.6947 15.75792351134645
ALTAIR (RS65S)          
1 61779U 24199AW  26168.17710432  .00006531  00000+0  18224-3 0  9997
2 61779  97.3024  37.5281 0011117 311.2575  48.7711 15.37022326137110
ASRTU-1 (AO-123)        
1 61781U 24199AY  26168.16499698  .00005901  00000+0  17206-3 0  9996
2 61781  97.2995  36.8360 0012312 314.2353  45.7879 15.35674881133928
SAMSAT-IONOSPHERE (RS7*)
1 61784U 24199BB  26168.18790799  .00037703  00000+0  50997-3 0  9996
2 61784  97.2940  44.0751 0005861 276.3982  83.6606 15.57623528137562
RTU MIREA 1 (RS51S)     
1 61785U 24199BC  26168.14821904  .00047297  00000+0  56049-3 0  9999
2 61785  97.2930  44.8662 0005524 268.1439  91.9186 15.61084061134462
TEVEL2-4                
1 63213U 25052D   26167.98658140  .00016047  00000+0  48034-3 0  9991
2 63213  97.3904  64.3780 0004860 103.4475 256.7310 15.34605865 70081
TEVEL2-5                
1 63214U 25052E   26167.94184661  .00015322  00000+0  46132-3 0  9992
2 63214  97.3902  64.2812 0004796 104.9018 255.2757 15.34430962 70074
TEVEL2-6                
1 63215U 25052F   26168.14981521  .00014311  00000+0  43150-3 0  9990
2 63215  97.3903  64.4736 0004692 104.9299 255.2464 15.34400540 70107
TEVEL2-1                
1 63217U 25052H   26167.98311731  .00015254  00000+0  46759-3 0  9998
2 63217  97.3878  63.9315 0004776 114.0246 246.1497 15.33862790 70062
TEVEL2-3                
1 63218U 25052J   26167.97776757  .00015147  00000+0  46354-3 0  9993
2 63218  97.3882  63.9480 0004723 114.1810 245.9927 15.33918227 70063
TEVEL2-2                
1 63219U 25052K   26167.65724747  .00014434  00000+0  44263-3 0  9996
2 63219  97.3883  63.6082 0004715 115.1533 245.0199 15.33861744 70012
TEVEL2-9                
1 63237U 25052AD  26167.96058942  .00013167  00000+0  42947-3 0  9996
2 63237  97.3943  63.2870 0007801 131.5476 228.6436 15.31891765 69997
TEVEL2-7                
1 63238U 25052AE  26167.67478499  .00012652  00000+0  41668-3 0  9995
2 63238  97.3945  62.9183 0007828 132.5601 227.6303 15.31589641 69947
TEVEL2-8                
1 63239U 25052AF  26167.68303146  .00012386  00000+0  40821-3 0  9997
2 63239  97.3946  62.9032 0007849 133.0156 227.1744 15.31573973 69941
INNOSAT 16 (RS92S7)     
1 64878U 25155C   26168.13323494  .00004387  00000+0  17611-3 0  9993
2 64878  97.4566 135.2612 0010557 175.4505 184.6830 15.25455745 80660
GEOSCAN 6 (RS92S6)      
1 64879U 25155D   26168.18157047  .00008083  00000+0  27941-3 0  9992
2 64879  97.4559 136.7334 0008364 162.4477 197.7054 15.30151120 80767
GEOSCAN 1 (RS92S1)      
1 64880U 25155E   26168.18402167  .00008649  00000+0  29334-3 0  9996
2 64880  97.4555 136.8838 0008305 162.1541 197.9993 15.30746148 80774
239ALFEROV (RS61S)      
1 64881U 25155F   26168.15367014  .00011903  00000+0  37609-3 0  9996
2 64881  97.4555 137.4147 0008041 159.1366 201.0206 15.32938934 80809
GEOSCAN 2 (RS92S2)      
1 64890U 25155Q   26168.17770691  .00008482  00000+0  28537-3 0  9995
2 64890  97.4554 137.0299 0008116 149.5431 210.6282 15.31017290 80780
GEOSCAN 5 (RS92S5)      
1 64891U 25155R   26168.14270183  .00010879  00000+0  34070-3 0  9996
2 64891  97.4548 137.5410 0006755 162.6848 197.4625 15.33255028 80811
GEOSCAN 4 (RS92S4)      
1 64892U 25155S   26168.19215536  .00011673  00000+0  36357-3 0  9996
2 64892  97.4551 137.6394 0006821 162.1868 197.9615 15.33411240 80824
GEOSCAN 3 (RS92S3)      
1 64893U 25155T   26168.12773234  .00014578  00000+0  42577-3 0  9992
2 64893  97.4540 138.0039 0006780 160.6173 199.5329 15.35393394 80843
